{"type": "FeatureCollection", "features": [ {"type": "Feature", "properties": {"norad_id": 66911, "name": "1998-067XX", "group": "stations", "lat": 25.306132434845363, "lon": 130.14510423563115, "alt_km": 407.2042445025354, "timestamp": "2025-12-19T14:48:34.990557+00:00", "meta": {"OBJECT_NAME": "1998-067XX", "OBJECT_ID": "1998-067XX", "EPOCH": "2025-12-18T15:30:03.053088", "MEAN_MOTION": 15.52835677, "ECCENTRICITY": 0.00040366, "INCLINATION": 51.6301, "RA_OF_ASC_NODE": 112.9797, "ARG_OF_PERICENTER": 247.1524, "MEAN_ANOMALY": 112.904, "EPHEMERIS_TYPE": 0, "CLASSIFICATION_TYPE": "U", "NORAD_CAT_ID": 66911, "ELEMENT_SET_NO": 999, "REV_AT_EPOCH": 252, "BSTAR": 0.0010034262, "MEAN_MOTION_DOT": 0.00063428, "MEAN_MOTION_DDOT": 0}, "tle": {"line1": "1 66911U 98067XX  25352.64586867  .00063428  00000+0  10034-2 0  9992", "line2": "2 66911  51.6301 112.9797 0004036 247.1524 112.9040 15.52835677  2520"}}, "geometry": {"type": "Point", "coordinates": [130.14510423563115, 25.306132434845363]}}, {"type": "Feature", "properties": {"norad_id": 66912, "name": "1998-067XY", "group": "stations", "lat": -11.063257525638596, "lon": 99.32867951161612, "alt_km": 413.3920271094339, "timestamp": "2025-12-19T14:48:34.990567+00:00", "meta": {"OBJECT_NAME": "1998-067XY", "OBJECT_ID": "1998-067XY", "EPOCH": "2025-12-18T14:08:25.948608", "MEAN_MOTION": 15.51695277, "ECCENTRICITY": 0.00040785, "INCLINATION": 51.6305, "RA_OF_ASC_NODE": 113.3494, "ARG_OF_PERICENTER": 255.7838, "MEAN_ANOMALY": 104.2699, "EPHEMERIS_TYPE": 0, "CLASSIFICATION_TYPE": "U", "NORAD_CAT_ID": 66912, "ELEMENT_SET_NO": 999, "REV_AT_EPOCH": 251, "BSTAR": 0.00071420837, "MEAN_MOTION_DOT": 0.00043076, "MEAN_MOTION_DDOT": 0}, "tle": {"line1": "1 66912U 98067XY  25352.58918922  .00043076  00000+0  71421-3 0  9992", "line2": "2 66912  51.6305 113.3494 0004078 255.7838 104.2699 15.51695277  2515"}}, "geometry": {"type": "Point", "coordinates": [99.32867951161612, -11.063257525638596]}}]}